{"type":"FeatureCollection","features":[{"type":"Feature","geometry":{"type":"Polygon","coordinates":[[[-77.284762999651178,38.90052099994822],[-77.284716999620414,38.900513999833699],[-77.284672000312909,38.90052099994822],[-77.284571999855459,38.900577999856466],[-77.284482000342095,38.90061799966665],[-77.284351999747443,38.900658000153356],[-77.284251000363426,38.900677000324222],[-77.284146999708042,38.90068599985144],[-77.284107000423376,38.900611000260746],[-77.283909999881573,38.900240999722349],[-77.283535999787759,38.900015000277811],[-77.282744000117518,38.899165999671581],[-77.283119999861157,38.898970000153817],[-77.283105999617447,38.898946999871768],[-77.281658999645998,38.897404999897937],[-77.280968000258085,38.89779499983112],[-77.280415999889044,38.898040000226466],[-77.279573000165172,38.898416999971261],[-77.279170999583968,38.897934999661125],[-77.277102999646473,38.898021000049084],[-77.277074000232489,38.897634999687405],[-77.277034000049511,38.89748800025135],[-77.277126000111011,38.897409000338364],[-77.277122999737969,38.8973669998975],[-77.277116999890197,38.897290999835612],[-77.277061999638605,38.897249000024104],[-77.277584999695335,38.896834999853638],[-77.276895000132342,38.896306999822635],[-77.276838000230939,38.896262000099227],[-77.276921000071596,38.896190000063015],[-77.277639999946899,38.895865000263157],[-77.277538999664586,38.895718999744155],[-77.276541999954915,38.894481000098452],[-77.275721999797284,38.893472999832049],[-77.275664999895866,38.893406000247843],[-77.275592999925834,38.893311999921131],[-77.275546000070179,38.893250999798738],[-77.27509400015856,38.892725999869171],[-77.273425000429242,38.890791000320561],[-77.272685999564146,38.889831000059687],[-77.272843999747877,38.88972900024838],[-77.27305800000812,38.889612000140502],[-77.273330999819606,38.889462999736082],[-77.27344999964528,38.889413999680265],[-77.27375199976909,38.889250000032376],[-77.273921999648408,38.889153000169046],[-77.273031000243947,38.887128999879458],[-77.272273000010586,38.885411999923235],[-77.271828999596579,38.884406000205871],[-77.271132000360879,38.882827999743043],[-77.271108000071436,38.882772000240173],[-77.270928999971304,38.88235399970943],[-77.27079099987904,38.88238900013426],[-77.270610000129068,38.882428999699613],[-77.269045000156837,38.882774000173221],[-77.267957000210586,38.8830130001596],[-77.267800999676666,38.883047000297147],[-77.267752999996077,38.883035000044785],[-77.267614999903827,38.882998999974838],[-77.267419000085241,38.882543999810544],[-77.267423000283202,38.882465000058367],[-77.267409999864398,38.882342000039273],[-77.267212000396015,38.881618000108666],[-77.267168000015076,38.881491000083763],[-77.266945000432315,38.880968999926537],[-77.266907999724083,38.880881999877133],[-77.266720000301405,38.880919000313021],[-77.266674000270655,38.880929000238524],[-77.266304000374816,38.881026000142228],[-77.265982999984431,38.881107000075751],[-77.265683000408799,38.881184999950278],[-77.265399999653255,38.881257999800184],[-77.265090000031861,38.881337000195046],[-77.264972999855999,38.88136699979087],[-77.264786000258241,38.881416999788385],[-77.264510999898633,38.881491000083763],[-77.264144000375822,38.881587999919567],[-77.263802000069063,38.881679999713548],[-77.263423999777288,38.881778999951649],[-77.263202000019447,38.881839000155978],[-77.261741999629194,38.881450000005223],[-77.260005999952739,38.880987999770426],[-77.259149999810077,38.880759999909749],[-77.257225999812647,38.880258000018003],[-77.25442700030429,38.879529999783458],[-77.254140000249123,38.879452000190128],[-77.253858000216823,38.879375999840491],[-77.25335899955121,38.879240999874852],[-77.253209999588293,38.879200999913444],[-77.25310900020429,38.879174000154052],[-77.253052000302873,38.879157999877428],[-77.25280899973032,38.879092000096705],[-77.252135000060846,38.87890900000275],[-77.251078000076731,38.878626999840982],[-77.251020000350408,38.878620999691449],[-77.250967999573561,38.878596999787646],[-77.25058500015723,38.878493999904521],[-77.250554000195081,38.878515999790238],[-77.250432999821257,38.878582000105936],[-77.250354000178561,38.878615000240742],[-77.249701000425475,38.878852000186782],[-77.249502000233846,38.878921000252625],[-77.249471000271726,38.878924000314818],[-77.249298000019351,38.8790140000226],[-77.248422999610113,38.879359000294059],[-77.248092999897224,38.879495000048237],[-77.248003000383846,38.879549000012133],[-77.247579000061336,38.879696000210991],[-77.24695999974513,38.879903999853838],[-77.245648000391213,38.882276999693055],[-77.245600999637233,38.882359000270654],[-77.244196000396883,38.884810999962411],[-77.24360200019504,38.885848999886775],[-77.24320899983465,38.886534999854398],[-77.242985000426984,38.886925999950421],[-77.242951999916713,38.886986999910867],[-77.242609999609954,38.88761399980352],[-77.242285999744837,38.888207999896537],[-77.243806000409549,38.888720999666504],[-77.243858000288085,38.888737999769923],[-77.244710000232786,38.889000999864479],[-77.244931999990641,38.889078000284819],[-77.245470999940892,38.889255000108285],[-77.246901000193901,38.889720999900547],[-77.247041999760896,38.889778999954828],[-77.247163999959625,38.889841000129294],[-77.247081999943859,38.889942999779777],[-77.24568000017824,38.891655999931309],[-77.24568799967588,38.89170300015725],[-77.245701000094655,38.891775999687852],[-77.245357000138057,38.892352000172039],[-77.244984999694083,38.892513999990989],[-77.244804999769016,38.892588999743211],[-77.244875000089223,38.892628999858346],[-77.244931999990641,38.892648999907472],[-77.244982000219338,38.892683000327615],[-77.245033000272969,38.892725999869171],[-77.245045999793447,38.892737000056677],[-77.245282999619917,38.892909999857359],[-77.245362000160952,38.892977999732345],[-77.245308999559185,38.893016999806086],[-77.24431600004749,38.893823000264057],[-77.244128999551421,38.893702999770881],[-77.24389000007514,38.894091000144002],[-77.243131999841765,38.895320999879409],[-77.242388999677004,38.896528000318582],[-77.242172999766936,38.89687799967804],[-77.242113000390802,38.896987000173006],[-77.242527999594188,38.897231999860253],[-77.242817000197491,38.897422000020327],[-77.242813999824435,38.897477999860151],[-77.242788999710086,38.897687000332951],[-77.242780000387569,38.89776000000527],[-77.242761000121007,38.897931999702621],[-77.242474999890732,38.90054399972049],[-77.24242100036237,38.900931000059671],[-77.242243000087143,38.902345000182329],[-77.242183999637589,38.902724999896868],[-77.242014999583191,38.903738000021349],[-77.241891999559542,38.904475000092745],[-77.241889999909716,38.904487999879265],[-77.242065999636822,38.904510000104104],[-77.242176999964897,38.904491000259874],[-77.242392999874966,38.904452999857064],[-77.242740000204606,38.904737000278089],[-77.24300799999321,38.905082000061199],[-77.243024999711636,38.905104000101957],[-77.243063000244788,38.905150000165158],[-77.243125000169059,38.905234000203606],[-77.243275999781801,38.905429000259247],[-77.243957000022291,38.905852999868927],[-77.244213999940229,38.906014000008689],[-77.244239999879511,38.90600000016299],[-77.244266999643685,38.906010000053051],[-77.244419999804563,38.90598800029305],[-77.244459000162607,38.9059679998063],[-77.244500000170504,38.905936999774646],[-77.244538999630237,38.905920999933414],[-77.244797000271419,38.905840000332347],[-77.244486999751715,38.906581999808473],[-77.244145000343252,38.907377999698227],[-77.244094000289635,38.907496000214913],[-77.244043000236005,38.907617999701714],[-77.244023999969443,38.907662999917868],[-77.244002000228122,38.907710999650966],[-77.24404400006091,38.907722000313399],[-77.243868000333819,38.908123000102854],[-77.243781000295201,38.908321000130989],[-77.243715000172941,38.90847300032862],[-77.243578999730516,38.908783999746383],[-77.243422000269987,38.909134999803548],[-77.243396000330719,38.909203999813855],[-77.243566000210024,38.909198000149928],[-77.243700999929246,38.90920800028848],[-77.243864999960778,38.90923799999684],[-77.243945000326704,38.909258000261339],[-77.244070000000193,38.909296999782299],[-77.244422000352699,38.909454000038863],[-77.244558999721733,38.909541000044904],[-77.244784999677535,38.909712999863515],[-77.245066999709849,38.910032999880087],[-77.245153999748482,38.910102999997243],[-77.245250999832862,38.910154999899753],[-77.245345000442498,38.910189000326248],[-77.245410999666433,38.910204000324178],[-77.246563999910009,38.910374000079393],[-77.247211999640214,38.910450000117827],[-77.247596999604681,38.91050199976619],[-77.248066999957956,38.910573999969102],[-77.248164000042337,38.910601999950636],[-77.249127000315113,38.910741000119835],[-77.249283999775656,38.910754999729555],[-77.249405999974371,38.910752999885339],[-77.249532000371062,38.910739999848026],[-77.249701000425475,38.910711000347732],[-77.250017999719574,38.910647999946285],[-77.250026999940388,38.910731999770164],[-77.250058999727443,38.910832999901089],[-77.250074999620992,38.910868999843828],[-77.249674999587896,38.911037000267136],[-77.249282000125817,38.911218999810963],[-77.247401999611014,38.91207199989563],[-77.246819000178149,38.912337000051473],[-77.246703999652084,38.91238800016577],[-77.245716999988176,38.912835000133754],[-77.24549600005524,38.912937999850861],[-77.245285000168053,38.913027000259653],[-77.244502999645221,38.913392000093303],[-77.244027000342484,38.91361700006091],[-77.243389999584622,38.913923000270138],[-77.243283000352818,38.913969999737688],[-77.241672000349837,38.914686000180438],[-77.241155000140878,38.914921999786145],[-77.240991999934266,38.914989000037608],[-77.241136999699236,38.915069999683418],[-77.241253999875099,38.915132999654624],[-77.241294999882967,38.915155000075217],[-77.241326999670022,38.915173999861061],[-77.241350999959465,38.91518699978517],[-77.242339000346604,38.915721999919747],[-77.242404999570525,38.915758000178528],[-77.24365400007359,38.916452000044565],[-77.243254000040508,38.916596000187774],[-77.24242499966202,38.916909000030003],[-77.242433000057929,38.916955000131637],[-77.242711999717201,38.918484999893266],[-77.241961999879734,38.91865900002459],[-77.242170000292205,38.919142000273943],[-77.242479999913598,38.919068000066957],[-77.242633000074477,38.919757999832889],[-77.242639999747169,38.919790999708241],[-77.243582000103558,38.919442000227924],[-77.244302999628701,38.920000000193404],[-77.246390999657635,38.919288000153692],[-77.246446999734147,38.919329000056329],[-77.246604000092987,38.919420999887997],[-77.246748000033023,38.919495999875267],[-77.246892999797979,38.919555999668177],[-77.247204999967522,38.91968199997681],[-77.247354999755345,38.919750000072554],[-77.24752899983261,38.91981800010317],[-77.247722000176466,38.91989899982849],[-77.248925999575349,38.920379000315464],[-77.249092999979936,38.9204500001482],[-77.249701000425475,38.920692999677996],[-77.250264999591778,38.920923000203508],[-77.250971999771508,38.921212999773054],[-77.251104999840919,38.921262999675456],[-77.251483999957586,38.921405999718992],[-77.252249999688573,38.921713000007017],[-77.252386999955931,38.921771999905644],[-77.252500999758723,38.921824000344245],[-77.255325000279754,38.921411999748763],[-77.25551600007546,38.921359000283886],[-77.25486999999508,38.920016999797824],[-77.254608999879181,38.91946799990793],[-77.254594999635472,38.919451000171989],[-77.257523999738481,38.919264000012184],[-77.257466000012172,38.918845000223314],[-77.257435000050037,38.918603000117258],[-77.257389000019288,38.918270000242323],[-77.257421999631234,38.918127000169044],[-77.257368999927778,38.917742000259842],[-77.257264000345799,38.916949999909335],[-77.257241999706181,38.916778000154586],[-77.257164999713282,38.916203999695405],[-77.257105000337148,38.915752999871849],[-77.257087999720397,38.915633000094715],[-77.257070000177052,38.915425999740137],[-77.25710600016204,38.915219000179668],[-77.257169999736163,38.915026000180681],[-77.257214000117088,38.914943000059516],[-77.257271999843411,38.914861000055083],[-77.257365999554736,38.914754999687304],[-77.25744099989781,38.914683000230745],[-77.257547000203019,38.914596000236678],[-77.257644000287399,38.914516000268478],[-77.257708999686415,38.914468000244256],[-77.257765999587818,38.914427000328992],[-77.257903999680082,38.914522000181869],[-77.257953000083887,38.914706999824723],[-77.257941000388328,38.914732999841689],[-77.257948999885926,38.914755999902468],[-77.257969999802327,38.914773000064244],[-77.258004000137504,38.914780000170737],[-77.258085000328364,38.914754999687304],[-77.258231999743145,38.914764999741919],[-77.25838400007909,38.914763000010687],[-77.258404999995506,38.914751000224207],[-77.258604000187134,38.914914999693607],[-77.258778000264414,38.914920000059332],[-77.258779999914239,38.915066000238085],[-77.258945999595568,38.91517799999928],[-77.259225999978057,38.915219000179668],[-77.259261000138153,38.915235000022015],[-77.259523000078971,38.915351000343939],[-77.260263999695596,38.914638999789148],[-77.260200999946406,38.91462699998165],[-77.260154999915656,38.914603999879063],[-77.260107000235067,38.914560000087413],[-77.260087000143599,38.914512000092955],[-77.26008600031868,38.914462999846741],[-77.260106000410175,38.914416000006689],[-77.260145999694842,38.914375000061327],[-77.260186999702711,38.91435199987707],[-77.260251000175131,38.914335999835593],[-77.260301000403857,38.914335000313429],[-77.260359999955085,38.914347000170295],[-77.260409000358877,38.914347000170295],[-77.260453999666396,38.914332000348892],[-77.259834000423609,38.91393999993241],[-77.259954999899122,38.913825000328465],[-77.260414000381743,38.913387999854415],[-77.26101799973101,38.913779000294902],[-77.261134000081981,38.913663999731106],[-77.261206000051985,38.913720000041081],[-77.262035000430458,38.914366000172464],[-77.26256199978684,38.914777000225016],[-77.262498000212744,38.914819999667813],[-77.262810000382288,38.915089999702488],[-77.262803999636191,38.915132999654624],[-77.2630999999122,38.915402999896443],[-77.263264999768637,38.91529099979136],[-77.263303000301775,38.915320000216241],[-77.263596000204743,38.915544999663197],[-77.264341000019314,38.916115999971936],[-77.264398999745623,38.91607599980739],[-77.264714000288208,38.916369000193299],[-77.264750000273224,38.916343000076736],[-77.264793999755852,38.916381999898505],[-77.26520700020771,38.916751000000822],[-77.265346000124893,38.916655000147493],[-77.2665500004221,38.915818999837512],[-77.266593000079808,38.915866000146302],[-77.266649000156306,38.916005999989402],[-77.266715000278538,38.915972999751716],[-77.266674000270655,38.915853000346573],[-77.267024000075025,38.915678000122263],[-77.267758999843863,38.91509799998817],[-77.268651999796447,38.914411999825575],[-77.269890000428845,38.913429999904892],[-77.270345999640114,38.913059000230106],[-77.271545999739359,38.912084000135067],[-77.271587999572148,38.912121999948013],[-77.273439999599546,38.913769000101347],[-77.273780000256494,38.914071000153804],[-77.273565000171345,38.914522000181869],[-77.273201000123265,38.91527600016952],[-77.273165999963169,38.915432000275509],[-77.273150999894554,38.915496000130211],[-77.273083000122483,38.915786999713561],[-77.272914999893004,38.915731999838115],[-77.272492000293695,38.915589999746608],[-77.272471000377308,38.915631999891851],[-77.272464999631197,38.915641000319127],[-77.272981000015236,38.915821000237955],[-77.273064999680827,38.91585200014682],[-77.273046000312576,38.915908000128255],[-77.273027000045985,38.91596699996105],[-77.273458000041217,38.916210000164995],[-77.273487000353541,38.916226999978413],[-77.273570000194198,38.916272999823157],[-77.274083000205195,38.915306000108991],[-77.274431000359741,38.914651000293546],[-77.274572999751641,38.914777000225016],[-77.274646000444903,38.914842999700454],[-77.274808999753205,38.914989000037608],[-77.274756000049749,38.91480900010545],[-77.274781999989031,38.914763000010687],[-77.274976999982698,38.914416000006689],[-77.274920999906186,38.914144999979882],[-77.274867000377839,38.913877999828699],[-77.274849999761088,38.913797000220406],[-77.275247000319425,38.913118999873731],[-77.275350000251592,38.912962000034923],[-77.275399999581992,38.912899999775796],[-77.275455999658476,38.912829000077799],[-77.275573999659272,38.912701999938648],[-77.275731000018098,38.912560000075381],[-77.275844999820919,38.912473000274787],[-77.276003000004664,38.912352000294462],[-77.275345000228711,38.911759999947428],[-77.274976999982698,38.911427999679319],[-77.274959000439338,38.911411999677725],[-77.27387700034086,38.910445000136185],[-77.273754000317226,38.910316000068867],[-77.273821000264377,38.91026199972724],[-77.273868000120032,38.910224000316532],[-77.273950000135812,38.910159000320853],[-77.274002000014335,38.910116999732743],[-77.27436900043547,38.90982299981345],[-77.274761999897535,38.909508000296213],[-77.275094999983452,38.909644000348052],[-77.275244999771289,38.909829000123565],[-77.276009999677356,38.90882500012539],[-77.276403999862666,38.908968999666222],[-77.277229999868098,38.909020000103425],[-77.277430999709551,38.908683000194983],[-77.277778000039177,38.908464999995246],[-77.278177000247354,38.907531999752983],[-77.278344999578522,38.907408999799635],[-77.27848199984588,38.907309000010152],[-77.278696999931029,38.907257999741709],[-77.278977000313503,38.907297999982752],[-77.27939300024012,38.907412999676438],[-77.279404999935679,38.907375999758862],[-77.279454000339484,38.907266000211159],[-77.279573999990092,38.907060000243817],[-77.279661000028725,38.906935999846297],[-77.279738000021624,38.9068430002798],[-77.279696000188835,38.906649999873736],[-77.279252999599734,38.906415999992362],[-77.2787300004413,38.906184000011791],[-77.278819000129772,38.906081000280558],[-77.279168999934129,38.905643000019303],[-77.281304999643666,38.904553000174275],[-77.281496000337697,38.904731999894032],[-77.281620000186265,38.904847999904923],[-77.282358000328145,38.904340000286858],[-77.282441000168802,38.904261999971268],[-77.282534000055236,38.904157999883282],[-77.282611999873041,38.904048999909818],[-77.282667000124619,38.903952999653562],[-77.282727000399078,38.903812999804416],[-77.282761999660863,38.903689000027079],[-77.282781999752359,38.903562999986441],[-77.282785000125401,38.90344000014715],[-77.283136999579582,38.903200999679612],[-77.282864999593016,38.903132999806161],[-77.282749000140385,38.902871999676883],[-77.282587999583598,38.90285900029356],[-77.282594000329681,38.902842000074642],[-77.282732000421959,38.902514999882868],[-77.28284899969951,38.90255599968804],[-77.283596999887124,38.90281700027991],[-77.283754000245949,38.902871999676883],[-77.284052999996717,38.902352000116345],[-77.284252000188332,38.902415999880581],[-77.284273000104733,38.902372000223643],[-77.28431300028771,38.902302000172959],[-77.284497000410724,38.901975999986796],[-77.284545000091285,38.901599999963388],[-77.284052000171798,38.901167999664942],[-77.284201000134701,38.900965000010324],[-77.284397999778193,38.900700000045909],[-77.284762999651178,38.90052099994822]]]},"properties":{"GEOID":"5181072","NAME":"Vienna town"}}]}